[{"OBJECT_NAME":"STARLINK-1159","OBJECT_ID":"2020-006P","EPOCH":"2026-03-10T00:00:02.999808","MEAN_MOTION":15.81930134,"ECCENTRICITY":0.0001934,"INCLINATION":53.0438,"RA_OF_ASC_NODE":233.2103,"ARG_OF_PERICENTER":143.6489,"MEAN_ANOMALY":161.0887,"EPHEMERIS_TYPE":0,"CLASSIFICATION_TYPE":"U","NORAD_CAT_ID":45057,"ELEMENT_SET_NO":999,"REV_AT_EPOCH":599,"BSTAR":0.00093798588,"MEAN_MOTION_DOT":0.00198257,"MEAN_MOTION_DDOT":0},{"OBJECT_NAME":"STARLINK-36824","OBJECT_ID":"2026-037X","EPOCH":"2026-03-09T22:00:01.999584","MEAN_MOTION":15.8200441,"ECCENTRICITY":0.00017736,"INCLINATION":42.9989,"RA_OF_ASC_NODE":196.9718,"ARG_OF_PERICENTER":280.0109,"MEAN_ANOMALY":291.416,"EPHEMERIS_TYPE":0,"CLASSIFICATION_TYPE":"U","NORAD_CAT_ID":67953,"ELEMENT_SET_NO":999,"REV_AT_EPOCH":323,"BSTAR":0.00021755614,"MEAN_MOTION_DOT":0.00045493,"MEAN_MOTION_DDOT":0}]
